SHENZHOU-21 (SZ-21)     
1 66263U 25246A   25312.06404689  .00041061  00000+0  48275-3 0  9992
2 66263  41.4661 227.2566 0005444 342.7102  17.3551 15.60647542258134
CZ-2F R/B               
1 66264U 25246B   25312.15738013  .01673304  76554-5  60030-3 0  9992
2 66264  41.4611 223.4014 0072020 184.7576 175.2605 16.17213841  1212
