CCSDS_OMM_VERS = 2.0
CREATION_DATE  = 
ORIGINATOR     = 

OBJECT_NAME    = SHENZHOU-21 (SZ-21)
OBJECT_ID      = 2025-246A
CENTER_NAME    = EARTH
REF_FRAME      = TEME
TIME_SYSTEM    = UTC
MEAN_ELEMENT_THEORY = SGP/SGP4

EPOCH          = 2025-11-08T01:32:13.651296
MEAN_MOTION    = 15.60647542
ECCENTRICITY   = .0005444
INCLINATION    = 41.4661
RA_OF_ASC_NODE = 227.2566
ARG_OF_PERICENTER = 342.7102
MEAN_ANOMALY   = 17.3551

EPHEMERIS_TYPE = 0
CLASSIFICATION_TYPE = U
NORAD_CAT_ID   = 66263
ELEMENT_SET_NO = 999
REV_AT_EPOCH   = 25813
BSTAR          = .48275349E-3
MEAN_MOTION_DOT = .41061E-3
MEAN_MOTION_DDOT = 0

CCSDS_OMM_VERS = 2.0
CREATION_DATE  = 
ORIGINATOR     = 

OBJECT_NAME    = CZ-2F R/B
OBJECT_ID      = 2025-246B
CENTER_NAME    = EARTH
REF_FRAME      = TEME
TIME_SYSTEM    = UTC
MEAN_ELEMENT_THEORY = SGP/SGP4

EPOCH          = 2025-11-08T03:46:37.643232
MEAN_MOTION    = 16.17213841
ECCENTRICITY   = .007202
INCLINATION    = 41.4611
RA_OF_ASC_NODE = 223.4014
ARG_OF_PERICENTER = 184.7576
MEAN_ANOMALY   = 175.2605

EPHEMERIS_TYPE = 0
CLASSIFICATION_TYPE = U
NORAD_CAT_ID   = 66264
ELEMENT_SET_NO = 999
REV_AT_EPOCH   = 121
BSTAR          = .6003E-3
MEAN_MOTION_DOT = .1673304E-1
MEAN_MOTION_DDOT = .76554E-5

